GLOBALSTAR M075         
1 37192U 10054E   24198.58063466 -.00000094  00000+0  56417-4 0  9994
2 37192  51.9944 123.3849 0000425  41.3594  14.1091 12.62261651633621
GLOBALSTAR M073         
1 37193U 10054F   24198.49225297 -.00000092  00000+0  65526-4 0  9996
2 37193  52.0073  37.2184 0000832  69.3115 303.1848 12.62267026635448
GLOBALSTAR M083         
1 37739U 11033A   24198.59896181 -.00000076  00000+0  15618-3 0  9995
2 37739  51.9879 346.0816 0000722 115.5034 323.8677 12.62262335604477
GLOBALSTAR M088         
1 37740U 11033B   24198.50625878 -.00000080  00000+0  13444-3 0  9991
2 37740  51.9717 252.1396 0000409 169.7375 328.2758 12.62265185600001
GLOBALSTAR M091         
1 37741U 11033C   24198.44169319 -.00000078  00000+0  14486-3 0  9992
2 37741  51.9969 215.2917 0000391 199.0397 303.9280 12.62264734600784
GLOBALSTAR M085         
1 37742U 11033D   24198.26891917 -.00000085  00000+0  10670-3 0  9998
2 37742  51.9848 167.1499 0000055 277.0963 221.8361 12.62263371601273
GLOBALSTAR M081         
1 37743U 11033E   24198.45646258 -.00000086  00000+0  10037-3 0  9994
2 37743  51.9937 169.1595 0000284 306.3762 204.4806 12.62266989601447
GLOBALSTAR M089         
1 37744U 11033F   24198.26249939 -.00000096  00000+0  45564-4 0  9994
2 37744  51.9924 124.0438 0000777  27.2651 140.3028 12.62265931602264
